{"type": "FeatureCollection", "features": [ {"type": "Feature", "properties": {"norad_id": 31341, "name": "FENGYUN 1C DEB", "group": "fengyun-1c-debris", "lat": 23.061662209843472, "lon": -131.2063020678056, "alt_km": 744.9982352501793, "timestamp": "2025-12-27T09:28:56.758392+00:00", "meta": {"OBJECT_NAME": "FENGYUN 1C DEB", "OBJECT_ID": "1999-025BQV", "EPOCH": "2025-12-27T02:24:24.908256", "MEAN_MOTION": 14.5347001, "ECCENTRICITY": 0.0053, "INCLINATION": 99.5551, "RA_OF_ASC_NODE": 44.3455, "ARG_OF_PERICENTER": 303.4736, "MEAN_ANOMALY": 111.62, "EPHEMERIS_TYPE": 0, "CLASSIFICATION_TYPE": "U", "NORAD_CAT_ID": 31341, "ELEMENT_SET_NO": 999, "REV_AT_EPOCH": 97827, "BSTAR": 0.0015195, "MEAN_MOTION_DOT": 6.397e-05, "MEAN_MOTION_DDOT": 0}, "tle": {"line1": "1 31341U 99025BQV 25361.10028829  .00006397  00000+0  15195-2 0  9991", "line2": "2 31341  99.5551  44.3455 0053000 303.4736 111.6200 14.53470010978276"}}, "geometry": {"type": "Point", "coordinates": [-131.2063020678056, 23.061662209843472]}}, {"type": "Feature", "properties": {"norad_id": 31342, "name": "FENGYUN 1C DEB", "group": "fengyun-1c-debris", "lat": 53.47750189235692, "lon": 150.47742827292237, "alt_km": 712.6942819452152, "timestamp": "2025-12-27T09:28:56.758402+00:00", "meta": {"OBJECT_NAME": "FENGYUN 1C DEB", "OBJECT_ID": "1999-025BQW", "EPOCH": "2025-12-26T02:48:41.180256", "MEAN_MOTION": 14.36778635, "ECCENTRICITY": 0.01120291, "INCLINATION": 98.9375, "RA_OF_ASC_NODE": 316.8824, "ARG_OF_PERICENTER": 179.8231, "MEAN_ANOMALY": 180.3013, "EPHEMERIS_TYPE": 0, "CLASSIFICATION_TYPE": "U", "NORAD_CAT_ID": 31342, "ELEMENT_SET_NO": 999, "REV_AT_EPOCH": 98083, "BSTAR": 0.00011079639, "MEAN_MOTION_DOT": 3.01e-06, "MEAN_MOTION_DDOT": 0}, "tle": {"line1": "1 31342U 99025BQW 25360.11714329  .00000301  00000+0  11080-3 0  9998", "line2": "2 31342  98.9375 316.8824 0112029 179.8231 180.3013 14.36778635980838"}}, "geometry": {"type": "Point", "coordinates": [150.47742827292237, 53.47750189235692]}}, {"type": "Feature", "properties": {"norad_id": 31346, "name": "FENGYUN 1C DEB", "group": "fengyun-1c-debris", "lat": -81.12596182925564, "lon": 61.54483222105906, "alt_km": 497.56799571862666, "timestamp": "2025-12-27T09:28:56.758412+00:00", "meta": {"OBJECT_NAME": "FENGYUN 1C DEB", "OBJECT_ID": "1999-025BRA", "EPOCH": "2025-12-22T15:28:43.197024", "MEAN_MOTION": 15.11348724, "ECCENTRICITY": 0.0108825, "INCLINATION": 98.867, "RA_OF_ASC_NODE": 325.1755, "ARG_OF_PERICENTER": 342.8884, "MEAN_ANOMALY": 16.8683, "EPHEMERIS_TYPE": 0, "CLASSIFICATION_TYPE": "U", "NORAD_CAT_ID": 31346, "ELEMENT_SET_NO": 999, "REV_AT_EPOCH": 99645, "BSTAR": 0.0012559476, "MEAN_MOTION_DOT": 0.00024407, "MEAN_MOTION_DDOT": 0}, "tle": {"line1": "1 31346U 99025BRA 25356.64494441  .00024407  00000+0  12559-2 0  9999", "line2": "2 31346  98.8670 325.1755 0108825 342.8884  16.8683 15.11348724996457"}}, "geometry": {"type": "Point", "coordinates": [61.54483222105906, -81.12596182925564]}}, {"type": "Feature", "properties": {"norad_id": 31348, "name": "FENGYUN 1C DEB", "group": "fengyun-1c-debris", "lat": -7.561639665921133, "lon": 131.94680734015387, "alt_km": 805.9783564541931, "timestamp": "2025-12-27T09:28:56.758422+00:00", "meta": {"OBJECT_NAME": "FENGYUN 1C DEB", "OBJECT_ID": "1999-025BRC", "EPOCH": "2025-12-26T16:26:24.153792", "MEAN_MOTION": 14.34133037, "ECCENTRICITY": 0.00353331, "INCLINATION": 99.1209, "RA_OF_ASC_NODE": 312.4202, "ARG_OF_PERICENTER": 26.4586, "MEAN_ANOMALY": 96.8666, "EPHEMERIS_TYPE": 0, "CLASSIFICATION_TYPE": "U", "NORAD_CAT_ID": 31348, "ELEMENT_SET_NO": 999, "REV_AT_EPOCH": 96449, "BSTAR": 0.0013416035, "MEAN_MOTION_DOT": 3.735e-05, "MEAN_MOTION_DDOT": 0}, "tle": {"line1": "1 31348U 99025BRC 25360.68500178  .00003735  00000+0  13416-2 0  9999", "line2": "2 31348  99.1209 312.4202 0035333  26.4586  96.8666 14.34133037964495"}}, "geometry": {"type": "Point", "coordinates": [131.94680734015387, -7.561639665921133]}}, {"type": "Feature", "properties": {"norad_id": 31350, "name": "FENGYUN 1C DEB", "group": "fengyun-1c-debris", "lat": 48.569933597180984, "lon": 4.2557191561664744, "alt_km": 738.7977536802146, "timestamp": "2025-12-27T09:28:56.758432+00:00", "meta": {"OBJECT_NAME": "FENGYUN 1C DEB", "OBJECT_ID": "1999-025BRE", "EPOCH": "2025-12-20T17:53:36.412512", "MEAN_MOTION": 14.34870807, "ECCENTRICITY": 0.00669241, "INCLINATION": 98.9598, "RA_OF_ASC_NODE": 167.0621, "ARG_OF_PERICENTER": 102.0687, "MEAN_ANOMALY": 258.8007, "EPHEMERIS_TYPE": 0, "CLASSIFICATION_TYPE": "U", "NORAD_CAT_ID": 31350, "ELEMENT_SET_NO": 999, "REV_AT_EPOCH": 70368, "BSTAR": 0.00033722959, "MEAN_MOTION_DOT": 9.36e-06, "MEAN_MOTION_DDOT": 0}, "tle": {"line1": "1 31350U 99025BRE 25354.74556033  .00000936  00000+0  33723-3 0  9997", "line2": "2 31350  98.9598 167.0621 0066924 102.0687 258.8007 14.34870807703682"}}, "geometry": {"type": "Point", "coordinates": [4.2557191561664744, 48.569933597180984]}}, {"type": "Feature", "properties": {"norad_id": 31351, "name": "FENGYUN 1C DEB", "group": "fengyun-1c-debris", "lat": -34.09558779695728, "lon": -6.213118307354633, "alt_km": 827.5966728931517, "timestamp": "2025-12-27T09:28:56.758442+00:00", "meta": {"OBJECT_NAME": "FENGYUN 1C DEB", "OBJECT_ID": "1999-025BRF", "EPOCH": "2025-12-22T10:10:17.163264", "MEAN_MOTION": 14.06949106, "ECCENTRICITY": 0.00933431, "INCLINATION": 98.7956, "RA_OF_ASC_NODE": 342.9353, "ARG_OF_PERICENTER": 24.2832, "MEAN_ANOMALY": 336.2694, "EPHEMERIS_TYPE": 0, "CLASSIFICATION_TYPE": "U", "NORAD_CAT_ID": 31351, "ELEMENT_SET_NO": 999, "REV_AT_EPOCH": 61511, "BSTAR": 0.0002975243, "MEAN_MOTION_DOT": 4.73e-06, "MEAN_MOTION_DDOT": 0}, "tle": {"line1": "1 31351U 99025BRF 25356.42380976  .00000473  00000+0  29752-3 0  9999", "line2": "2 31351  98.7956 342.9353 0093343  24.2832 336.2694 14.06949106615118"}}, "geometry": {"type": "Point", "coordinates": [-6.213118307354633, -34.09558779695728]}}, {"type": "Feature", "properties": {"norad_id": 31353, "name": "FENGYUN 1C DEB", "group": "fengyun-1c-debris", "lat": -53.48250444228436, "lon": -60.502095556512295, "alt_km": 765.2593166537017, "timestamp": "2025-12-27T09:28:56.758453+00:00", "meta": {"OBJECT_NAME": "FENGYUN 1C DEB", "OBJECT_ID": "1999-025BRH", "EPOCH": "2025-12-23T01:36:34.682976", "MEAN_MOTION": 14.29884822, "ECCENTRICITY": 0.02291012, "INCLINATION": 98.9918, "RA_OF_ASC_NODE": 282.6778, "ARG_OF_PERICENTER": 37.6194, "MEAN_ANOMALY": 324.0767, "EPHEMERIS_TYPE": 0, "CLASSIFICATION_TYPE": "U", "NORAD_CAT_ID": 31353, "ELEMENT_SET_NO": 999, "REV_AT_EPOCH": 96732, "BSTAR": 0.000644123, "MEAN_MOTION_DOT": 2.152e-05, "MEAN_MOTION_DDOT": 0}, "tle": {"line1": "1 31353U 99025BRH 25357.06706809  .00002152  00000+0  64412-3 0  9997", "line2": "2 31353  98.9918 282.6778 0229101  37.6194 324.0767 14.29884822967320"}}, "geometry": {"type": "Point", "coordinates": [-60.502095556512295, -53.48250444228436]}}, {"type": "Feature", "properties": {"norad_id": 31357, "name": "FENGYUN 1C DEB", "group": "fengyun-1c-debris", "lat": -16.190938396136428, "lon": 34.489186592838394, "alt_km": 837.5182418010736, "timestamp": "2025-12-27T09:28:56.758463+00:00", "meta": {"OBJECT_NAME": "FENGYUN 1C DEB", "OBJECT_ID": "1999-025BRM", "EPOCH": "2025-12-27T01:21:51.909120", "MEAN_MOTION": 14.18529492, "ECCENTRICITY": 0.0048866, "INCLINATION": 98.6095, "RA_OF_ASC_NODE": 31.6397, "ARG_OF_PERICENTER": 250.4861, "MEAN_ANOMALY": 166.319, "EPHEMERIS_TYPE": 0, "CLASSIFICATION_TYPE": "U", "NORAD_CAT_ID": 31357, "ELEMENT_SET_NO": 999, "REV_AT_EPOCH": 96907, "BSTAR": 4.844e-05, "MEAN_MOTION_DOT": 5.8e-07, "MEAN_MOTION_DDOT": 0}, "tle": {"line1": "1 31357U 99025BRM 25361.05685080  .00000058  00000+0  48440-4 0  9999", "line2": "2 31357  98.6095  31.6397 0048866 250.4861 166.3190 14.18529492969077"}}, "geometry": {"type": "Point", "coordinates": [34.489186592838394, -16.190938396136428]}}, {"type": "Feature", "properties": {"norad_id": 31358, "name": "FENGYUN 1C DEB", "group": "fengyun-1c-debris", "lat": -60.93803651467041, "lon": 100.73750439092146, "alt_km": 531.4545099558036, "timestamp": "2025-12-27T09:28:56.758473+00:00", "meta": {"OBJECT_NAME": "FENGYUN 1C DEB", "OBJECT_ID": "1999-025BRN", "EPOCH": "2025-12-24T18:55:57.832320", "MEAN_MOTION": 15.22563646, "ECCENTRICITY": 0.00436516, "INCLINATION": 98.9084, "RA_OF_ASC_NODE": 294.0441, "ARG_OF_PERICENTER": 79.5177, "MEAN_ANOMALY": 281.0969, "EPHEMERIS_TYPE": 0, "CLASSIFICATION_TYPE": "U", "NORAD_CAT_ID": 31358, "ELEMENT_SET_NO": 999, "REV_AT_EPOCH": 97753, "BSTAR": 0.0082771119, "MEAN_MOTION_DOT": 0.00202216, "MEAN_MOTION_DDOT": 0}, "tle": {"line1": "1 31358U 99025BRN 25358.78886380  .00202216  00000+0  82771-2 0  9995", "line2": "2 31358  98.9084 294.0441 0043651  79.5177 281.0969 15.22563646977535"}}, "geometry": {"type": "Point", "coordinates": [100.73750439092146, -60.93803651467041]}}, {"type": "Feature", "properties": {"norad_id": 31361, "name": "FENGYUN 1C DEB", "group": "fengyun-1c-debris", "lat": 80.68358340478167, "lon": -90.37282962443146, "alt_km": 807.5175061393738, "timestamp": "2025-12-27T09:28:56.758484+00:00", "meta": {"OBJECT_NAME": "FENGYUN 1C DEB", "OBJECT_ID": "1999-025BRR", "EPOCH": "2025-12-26T09:22:02.656128", "MEAN_MOTION": 14.17752908, "ECCENTRICITY": 0.0045727, "INCLINATION": 98.5524, "RA_OF_ASC_NODE": 335.1926, "ARG_OF_PERICENTER": 32.0789, "MEAN_ANOMALY": 328.3155, "EPHEMERIS_TYPE": 0, "CLASSIFICATION_TYPE": "U", "NORAD_CAT_ID": 31361, "ELEMENT_SET_NO": 999, "REV_AT_EPOCH": 96757, "BSTAR": 0.00015005, "MEAN_MOTION_DOT": 2.67e-06, "MEAN_MOTION_DDOT": 0}, "tle": {"line1": "1 31361U 99025BRR 25360.39030852  .00000267  00000+0  15005-3 0  9993", "line2": "2 31361  98.5524 335.1926 0045727  32.0789 328.3155 14.17752908967577"}}, "geometry": {"type": "Point", "coordinates": [-90.37282962443146, 80.68358340478167]}}]}